SatCatId,ObjectName,LaunchYear,OrbitalPeriod,LaunchMass,StatusCode,Inclination,Status,UcsData,OrbitClassEstimated,LaunchSiteCountry,Owner,UseType,Purpose,LaunchVehicleClass,TLE1,TLE2,MeanMotion,Eccentricity,OrbitClass
52576,STARLINK-3932,2022,95.44,260.0,+,53.22,Active,1,LEO,USA,USA,Commercial,Communications,Falcon,1 52576U 22051AS  24172.98153372 -.00000387  00000+0 -62119-5 0  9992,2 52576  53.2177  52.5240 0001574 102.1651 257.9517 15.08839139116970,15.08839139,0.0001574,LEO
52577,STARLINK-3836,2022,95.44,260.0,+,53.22,Active,1,LEO,USA,USA,Commercial,Communications,Falcon,1 52577U 22051AT  24173.89367600 -.00000016  00000+0  17093-4 0  9993,2 52577  53.2181  63.4308 0001606  90.6253 269.4923 15.08837768116972,15.08837768,0.0001606,LEO
52578,STARLINK-3833,2022,95.44,260.0,+,53.22,Active,1,LEO,USA,USA,Commercial,Communications,Falcon,1 52578U 22051AU  24173.10247208  .00000893  00000+0  74164-4 0  9993,2 52578  53.2176  66.9791 0001274  89.7233 270.3905 15.08840242116780,15.08840242,0.0001274,LEO
52579,STARLINK-3893,2022,95.44,260.0,+,53.22,Active,1,LEO,USA,USA,Commercial,Communications,Falcon,1 52579U 22051AV  24173.88631322  .00001179  00000+0  92126-4 0  9999,2 52579  53.2187  63.4632 0001454  94.1156 266.0002 15.08839690116979,15.0883969,0.0001454,LEO
52580,STARLINK-3919,2022,95.44,260.0,+,53.22,Active,1,LEO,USA,USA,Commercial,Communications,Falcon,1 52580U 22051AW  24173.89094114  .00001506  00000+0  11266-3 0  9993,2 52580  53.2180  63.4526 0001475  82.5711 277.5449 15.08848621116973,15.08848621,0.0001475,LEO
52581,STARLINK-3915,2022,95.44,260.0,+,53.22,Active,1,LEO,USA,USA,Commercial,Communications,Falcon,1 52581U 22051AX  24173.04313173  .00000378  00000+0  41850-4 0  9999,2 52581  53.2189  52.2517 0001416 108.1386 251.9761 15.08833248116980,15.08833248,0.0001416,LEO
52582,STARLINK-3886,2022,95.43,260.0,+,53.22,Active,1,LEO,USA,USA,Commercial,Communications,Falcon,1 52582U 22051AY  24173.05038082  .00016895  00000+0  10739-2 0  9995,2 52582  53.2171  52.2100 0001092 110.3336 249.7774 15.08947966116982,15.08947966,0.0001092,LEO
52583,STARLINK-3895,2022,95.44,260.0,+,53.22,Active,1,LEO,USA,USA,Commercial,Communications,Falcon,1 52583U 22051AZ  24173.03945349  .00000895  00000+0  74315-4 0  9992,2 52583  53.2177  52.2700 0001456  86.8678 273.2481 15.08840599116986,15.08840599,0.0001456,LEO
52584,STARLINK-3922,2022,95.44,260.0,+,53.22,Active,1,LEO,USA,USA,Commercial,Communications,Falcon,1 52584U 22051BA  24173.84169180  .00004548  00000+0  30364-3 0  9997,2 52584  53.2172  48.6629 0001347  83.6742 276.4404 15.08842523117178,15.08842523,0.0001347,LEO
52585,STARLINK-3906,2022,95.44,260.0,+,53.22,Active,1,LEO,USA,USA,Commercial,Communications,Falcon,1 52585U 22051BB  24173.88953249  .00001649  00000+0  12170-3 0  9993,2 52585  53.2184  48.4142 0001452  93.7877 266.3281 15.08834890117188,15.0883489,0.0001452,LEO
52586,STARLINK-3910,2022,95.44,260.0,+,53.22,Active,1,LEO,USA,USA,Commercial,Communications,Falcon,1 52586U 22051BC  24173.10201447  .00000472  00000+0  47716-4 0  9993,2 52586  53.2178  51.9846 0001148  87.0977 273.0146 15.08838393116996,15.08838393,0.0001148,LEO
52587,STARLINK-3867,2022,95.44,260.0,+,53.22,Active,1,LEO,USA,USA,Commercial,Communications,Falcon,1 52587U 22051BD  24173.08087078  .00004195  00000+0  28150-3 0  9999,2 52587  53.2183  51.9330 0001463  92.6716 267.4443 15.08841638116997,15.08841638,0.0001463,LEO
52588,STARLINK-3917,2022,95.44,260.0,+,53.22,Active,1,LEO,USA,USA,Commercial,Communications,Falcon,1 52588U 22051BE  24173.62089342  .00001012  00000+0  81664-4 0  9991,2 52588  53.2180  49.6596 0001575  93.8000 266.3173 15.08836600117077,15.088366,0.0001575,LEO
52598,STARLINK-4019,2022,95.44,260.0,+,53.22,Active,1,LEO,USA,USA,Commercial,Communications,Falcon,1 52598U 22052A   24173.39411302  .00000210  00000+0  31284-4 0  9994,2 52598  53.2172 215.6731 0001442  95.4850 264.6307 15.08836855117037,15.08836855,0.0001442,LEO
52599,STARLINK-4024,2022,95.44,260.0,+,53.22,Active,1,LEO,USA,USA,Commercial,Communications,Falcon,1 52599U 22052B   24173.51418582  .00001513  00000+0  11311-3 0  9991,2 52599  53.2172 210.2385 0001619  97.7727 262.3449 15.08840259117123,15.08840259,0.0001619,LEO
52600,STARLINK-4026,2022,95.44,260.0,+,53.21,Active,1,LEO,USA,USA,Commercial,Communications,Falcon,1 52600U 22052C   24173.42585417  .00002298  00000+0  16240-3 0  9993,2 52600  53.2141 210.5304 0001468  86.9401 273.1759 15.08841323117113,15.08841323,0.0001468,LEO
52601,STARLINK-4027,2022,95.44,260.0,+,53.22,Active,1,LEO,USA,USA,Commercial,Communications,Falcon,1 52601U 22052D   24173.36698960 -.00000775  00000+0 -30633-4 0  9998,2 52601  53.2153 210.7924 0001043  98.5854 261.5257 15.08823963117100,15.08823963,0.0001043,LEO
52602,STARLINK-4012,2022,95.44,260.0,+,53.22,Active,1,LEO,USA,USA,Commercial,Communications,Falcon,1 52602U 22052E   24173.42953173  .00001947  00000+0  14040-3 0  9999,2 52602  53.2149 210.5124 0001220  90.2977 269.8155 15.08841486117117,15.08841486,0.000122,LEO
52603,STARLINK-4016,2022,95.44,260.0,+,53.22,Active,1,LEO,USA,USA,Commercial,Communications,Falcon,1 52603U 22052F   24173.48201249  .00001085  00000+0  86249-4 0  9990,2 52603  53.2163 210.2888 0001305  90.4382 269.6759 15.08838372117123,15.08838372,0.0001305,LEO
52604,STARLINK-4013,2022,95.44,260.0,+,53.22,Active,1,LEO,USA,USA,Commercial,Communications,Falcon,1 52604U 22052G   24173.42217156  .00000971  00000+0  79115-4 0  9996,2 52604  53.2155 210.5462 0001252  89.6167 270.4968 15.08839800116317,15.088398,0.0001252,LEO
52605,STARLINK-4000,2022,95.44,260.0,+,53.21,Active,1,LEO,USA,USA,Commercial,Communications,Falcon,1 52605U 22052H   24173.43552269  .00001216  00000+0  94507-4 0  9990,2 52605  53.2152 215.2650 0001389  76.9538 283.1609 15.08840353116248,15.08840353,0.0001389,LEO
52606,STARLINK-3928,2022,95.44,260.0,+,53.22,Active,1,LEO,USA,USA,Commercial,Communications,Falcon,1 52606U 22052J   24173.48472948  .00001284  00000+0  98731-4 0  9999,2 52606  53.2155 210.2660 0001178  86.9800 273.1327 15.08842336116325,15.08842336,0.0001178,LEO
52607,STARLINK-3947,2022,95.44,260.0,+,53.22,Active,1,LEO,USA,USA,Commercial,Communications,Falcon,1 52607U 22052K   24173.38402852  .00000377  00000+0  41755-4 0  9992,2 52607  53.2156 215.7272 0001258  89.8190 270.2947 15.08841011116223,15.08841011,0.0001258,LEO
52608,STARLINK-3979,2022,95.44,260.0,+,53.22,Active,1,LEO,USA,USA,Commercial,Communications,Falcon,1 52608U 22052L   24173.47737634 -.00000755  00000+0 -29360-4 0  9992,2 52608  53.2161 210.3015 0001290  88.5585 271.5555 15.08833909116323,15.08833909,0.000129,LEO
52609,STARLINK-3997,2022,95.44,260.0,+,53.22,Active,1,LEO,USA,USA,Commercial,Communications,Falcon,1 52609U 22052M   24173.40008346  .00000189  00000+0  29982-4 0  9996,2 52609  53.2165 210.5974 0001283  88.6492 271.4647 15.08837681116315,15.08837681,0.0001283,LEO
52610,STARLINK-3998,2022,95.44,260.0,+,53.22,Active,1,LEO,USA,USA,Commercial,Communications,Falcon,1 52610U 22052N   24173.38674838  .00001123  00000+0  88647-4 0  9992,2 52610  53.2157 215.7056 0001320  82.8277 277.2865 15.08844509116239,15.08844509,0.000132,LEO
52611,STARLINK-3980,2022,95.44,260.0,+,53.22,Active,1,LEO,USA,USA,Commercial,Communications,Falcon,1 52611U 22052P   24173.44562934  .00000919  00000+0  75798-4 0  9998,2 52611  53.2161 215.4416 0001385  90.1059 270.0092 15.08844424116243,15.08844424,0.0001385,LEO
52612,STARLINK-4002,2022,95.44,260.0,+,53.22,Active,1,LEO,USA,USA,Commercial,Communications,Falcon,1 52612U 22052Q   24173.47369470  .00001721  00000+0  12622-3 0  9990,2 52612  53.2168 210.3163 0001287  92.3459 267.7681 15.08838059116326,15.08838059,0.0001287,LEO
52613,STARLINK-3921,2022,95.44,260.0,+,53.22,Active,1,LEO,USA,USA,Commercial,Communications,Falcon,1 52613U 22052R   24173.45621493  .00001017  00000+0  81955-4 0  9999,2 52613  53.2165 200.3934 0001348  87.1234 272.9913 15.08838007116453,15.08838007,0.0001348,LEO
52614,STARLINK-3982,2022,95.44,260.0,+,53.22,Active,1,LEO,USA,USA,Commercial,Communications,Falcon,1 52614U 22052S   24173.45989346 -.00000042  00000+0  15447-4 0  9995,2 52614  53.2141 200.3780 0001388  88.7971 271.3180 15.08838872116455,15.08838872,0.0001388,LEO
52615,STARLINK-4011,2022,95.44,260.0,+,53.22,Active,1,LEO,USA,USA,Commercial,Communications,Falcon,1 52615U 22052T   24173.44195365  .00000138  00000+0  26744-4 0  9992,2 52615  53.2157 215.4556 0001069  80.2706 279.8407 15.08840044116235,15.08840044,0.0001069,LEO
52616,STARLINK-4015,2022,95.44,260.0,+,53.22,Active,1,LEO,USA,USA,Commercial,Communications,Falcon,1 52616U 22052U   24173.45253567  .00000276  00000+0  35461-4 0  9992,2 52616  53.2170 200.4113 0001371  93.8673 266.2476 15.08835870116454,15.0883587,0.0001371,LEO
52617,STARLINK-3996,2022,95.44,260.0,+,53.22,Active,1,LEO,USA,USA,Commercial,Communications,Falcon,1 52617U 22052V   24173.44517283  .00000592  00000+0  55261-4 0  9991,2 52617  53.2163 200.4432 0001263  87.3237 272.7900 15.08838425116447,15.08838425,0.0001263,LEO
52618,STARLINK-3983,2022,95.44,260.0,+,53.22,Active,1,LEO,USA,USA,Commercial,Communications,Falcon,1 52618U 22052W   24173.38261181  .00000559  00000+0  53186-4 0  9995,2 52618  53.2161 200.7249 0001270  88.6685 271.4452 15.08839312116437,15.08839312,0.000127,LEO
52619,STARLINK-3741,2022,95.44,260.0,+,53.22,Active,1,LEO,USA,USA,Commercial,Communications,Falcon,1 52619U 22052X   24173.37524607  .00000735  00000+0  64261-4 0  9992,2 52619  53.2162 200.7488 0001336  92.9733 267.1412 15.08839950116435,15.0883995,0.0001336,LEO
52620,STARLINK-3975,2022,95.44,260.0,+,53.21,Active,1,LEO,USA,USA,Commercial,Communications,Falcon,1 52620U 22052Y   24173.50451091  .00000409  00000+0  43759-4 0  9992,2 52620  53.2154 215.1773 0001121  93.3966 266.7155 15.08842807116243,15.08842807,0.0001121,LEO
